ION SCV-021             
1 67483U 25276DT  26031.78065825  .00000748  00000+0  69168-4 0  9995
2 67483  97.5409 107.1780 0011143 219.9447 140.0956 14.97373478  2194
STARLINK-36551          
1 67493U 26012A   26031.83335647 -.01666600  00000+0 -68792-2 0  9991
2 67493  42.9964 167.4511 0001201 282.5181 278.5837 15.87760833  3147
STARLINK-36396          
1 67494U 26012B   26031.83335647 -.02282394  00000+0 -10397-1 0  9994
2 67494  42.9962 167.4520 0001324 282.3926 278.3746 15.86315561  3147
STARLINK-36550          
1 67495U 26012C   26031.83335647 -.01660810  00000+0 -67916-2 0  9997
2 67495  42.9960 167.4360 0001229 279.1283 288.0709 15.87935255  3148
STARLINK-36534          
1 67496U 26012D   26031.83335647 -.01654733  00000+0 -66939-2 0  9999
2 67496  42.9964 167.4183 0001347 279.7420 294.4288 15.88137026  3083
STARLINK-36555          
1 67497U 26012E   26031.83335647 -.01658723  00000+0 -67520-2 0  9990
2 67497  42.9963 167.4282 0001434 283.6737 286.6399 15.88019741  3141
STARLINK-36081          
1 67498U 26012F   26031.83335647 -.01645791  00000+0 -66052-2 0  9991
2 67498  42.9964 167.4062 0001473 283.1913 295.8009 15.88275801  3087
STARLINK-36558          
1 67499U 26012G   26031.83335647 -.01656246  00000+0 -66278-2 0  9999
2 67499  42.9963 167.4003 0001338 278.7151 302.7346 15.88353760  3146
STARLINK-36557          
1 67500U 26012H   26031.83335647 -.01648728  00000+0 -65545-2 0  9994
2 67500  42.9965 167.3891 0001367 282.0715 303.4020 15.88469593  3140
STARLINK-36433          
1 67501U 26012J   26031.83335647 -.01648994  00000+0 -65201-2 0  9999
2 67501  42.9963 167.3810 0001549 278.4917 310.4857 15.88574263  3142
STARLINK-36554          
1 67502U 26012K   26028.78437030  .00888078  38384-3  15774-2 0  9995
2 67502  42.9964 186.3737 0012326 300.6114  59.3549 16.00907404  1580
STARLINK-36552          
1 67503U 26012L   26031.83335647 -.01633571  00000+0 -63812-2 0  9992
2 67503  42.9965 167.3623 0001457 280.2974 316.0251 15.88786821  3145
STARLINK-36512          
1 67504U 26012M   26031.83335647 -.01625793  00000+0 -63044-2 0  9997
2 67504  42.9963 167.3509 0001456 279.6921 321.0285 15.88916928  3146
STARLINK-36545          
1 67505U 26012N   26031.83335647 -.01634704  00000+0 -63188-2 0  9999
2 67505  42.9963 167.3443 0001399 279.5651 323.7136 15.88995795  3142
STARLINK-36553          
1 67506U 26012P   26031.83335647 -.01623568  00000+0 -62368-2 0  9995
2 67506  42.9966 167.3360 0001435 279.8138 327.0302 15.89097549  3141
STARLINK-36521          
1 67507U 26012Q   26031.83335647 -.01631748  00000+0 -62268-2 0  9994
2 67507  42.9965 167.3244 0001423 279.9737 331.3034 15.89241659  3148
STARLINK-36526          
1 67508U 26012R   26031.83335647 -.01626284  00000+0 -61581-2 0  9991
2 67508  42.9964 167.3128 0001443 277.9757 337.9306 15.89382902  3142
STARLINK-36541          
1 67509U 26012S   26031.83335647 -.02265276  00000+0 -10153-1 0  9991
2 67509  42.9966 167.3272 0001441 277.4068 332.5068 15.86609583  3086
STARLINK-36549          
1 67510U 26012T   26031.83335647 -.01781809  86655-3 -53648-2 0  9998
2 67510  42.9956 167.1301 0001605 282.2671  45.0202 15.91427097  3084
STARLINK-36540          
1 67511U 26012U   26031.83335647 -.02245362  00000+0 -99132-2 0  9993
2 67511  42.9966 167.3173 0001385 278.3020 335.7917 15.86877249  3145
STARLINK-36538          
1 67512U 26012V   26031.83335647 -.01620642  00000+0 -60337-2 0  9996
2 67512  42.9969 167.2857 0001452 278.3516 348.0929 15.89702518  3141
STARLINK-36531          
1 67513U 26012W   26031.83335647 -.01621591  00000+0 -60027-2 0  9997
2 67513  42.9971 167.2775 0001593 281.4279 348.5529 15.89813860  3088
STARLINK-36530          
1 67514U 26012X   26031.83335647 -.01613817  00000+0 -59259-2 0  9995
2 67514  42.9968 167.2650 0001549 276.6472 357.9975 15.89957485  3080
STARLINK-36543          
1 67515U 26012Y   26031.83335647 -.01609425  00000+0 -58670-2 0  9992
2 67515  42.9967 167.2545 0001598 274.9215   4.0057 15.90089967  3087
STARLINK-36537          
1 67516U 26012Z   26031.83335647 -.01606446  00000+0 -57574-2 0  9995
2 67516  42.9964 167.2283 0001625 279.9883   8.9684 15.90413063  3088
STARLINK-36544          
1 67517U 26012AA  26031.83335647 -.01610983  00000+0 -58285-2 0  9997
2 67517  42.9966 167.2423 0001651 279.9012   3.5994 15.90237962  3144
STARLINK-36412          
1 67518U 26012AB  26031.83335647 -.01597668  00000+0 -56105-2 0  9991
2 67518  42.9964 167.1945 0001736 279.6347  22.8355 15.90788439  3081
STARLINK-36415          
1 67519U 26012AC  26031.83335647 -.01593130  00000+0 -55622-2 0  9995
2 67519  42.9961 167.1797 0001450 275.1417  32.7415 15.90895733  3304
STARLINK-36547          
1 67520U 26012AD  26031.83335647 -.01595895  00000+0 -56317-2 0  9999
2 67520  42.9959 167.2026 0001546 280.2698  18.3986 15.90694327  3087
STARLINK-36444          
1 67521U 26012AE  26031.83335647 -.01592212  00000+0 -56544-2 0  9992
2 67521  42.9963 167.2150 0001706 281.2098  13.0122 15.90564173  3083
HULIANWANG DIGUI-146    
1 67522U 26013A   26031.67830175  .00000008  00000+0  11866-3 0  9995
2 67522  50.0072 135.4585 0003033 275.5687  84.4867 13.93039903  1736
HULIANWANG DIGUI-147    
1 67523U 26013B   26027.66313970 -.00000123  00000+0  18037-4 0  9996
2 67523  50.0086 151.5449 0010772 261.1838  98.7844 13.97615600  1176
HULIANWANG DIGUI-148    
1 67524U 26013C   26021.44230141 -.00000137  00000+0  86600-5 0  9992
2 67524  50.0070 176.6144 0010785 240.3737 119.6091 13.98087765   308
HULIANWANG DIGUI-149    
1 67525U 26013D   26021.15633713 -.00000091  00000+0  40401-4 0  9990
2 67525  50.0063 177.7692 0010538 247.0477 112.9313 13.98123959   266
HULIANWANG DIGUI-150    
1 67526U 26013E   26025.15851686 -.00000115  00000+0  23740-4 0  9990
2 67526  50.0096 161.6201 0010015 258.6345 101.3432 13.98253437   846
HULIANWANG DIGUI-151    
1 67527U 26013F   26021.15608316 -.00000614  00000+0 -32354-3 0  9992
2 67527  50.0035 177.7600 0009841 238.6748 121.3191 13.98327198   267
HULIANWANG DIGUI-152    
1 67528U 26013G   26024.08719212 -.00000118  00000+0  21603-4 0  9990
2 67528  50.0047 165.9375 0009745 257.1222 102.8592 13.97836723   677
HULIANWANG DIGUI-153    
1 67529U 26013H   26021.87048088 -.00000100  00000+0  34277-4 0  9993
2 67529  50.0018 174.8698 0008966 242.4962 117.5029 13.98474895   357
HULIANWANG DIGUI-154    
1 67530U 26013J   26021.22721932 -.00000008  00000+0  98151-4 0  9998
2 67530  50.0045 177.4718 0008317 246.2151 113.7880 13.98568419   262
CZ-12 R/B               
1 67531U 26013K   26029.54311800  .00000271  00000+0  21651-3 0  9992
2 67531  49.9902 142.8353 0069060 163.0056 197.3188 14.14454871  1440
STARLINK-36587          
1 67532U 26014A   26031.83335647 -.01654534  74719-3 -57158-2 0  9996
2 67532  97.2827 274.8064 0001206  87.7142 221.5664 15.89608800  2765
STARLINK-36417          
1 67533U 26014B   26031.83335647 -.01659976  75235-3 -57114-2 0  9998
2 67533  97.2825 274.8072 0001261  94.2011 217.1189 15.89690603  2767
STARLINK-36576          
1 67534U 26014C   26031.83335647 -.01656582  75058-3 -56576-2 0  9993
2 67534  97.2824 274.8085 0001160  89.9844 224.7905 15.89838444  2761
STARLINK-36574          
1 67535U 26014D   26031.83335647 -.01656605  75225-3 -55944-2 0  9994
2 67535  97.2825 274.8108 0001093  80.1773 239.4874 15.90063031  2760
STARLINK-36572          
1 67536U 26014E   26031.83335647 -.01641613  74112-3 -54879-2 0  9998
2 67536  97.2822 274.8127 0001112  88.8435 235.3451 15.90262251  2762
STARLINK-36561          
1 67537U 26014F   26031.83335647 -.01654502  75319-3 -54850-2 0  9999
2 67537  97.2816 274.8141 0001124  86.3730 241.4887 15.90429791  2761
STARLINK-36397          
1 67538U 26014G   26031.83335647 -.01633652  73663-3 -53791-2 0  9996
2 67538  97.2813 274.8151 0001171  88.5378 242.5761 15.90562088  2764
STARLINK-36573          
1 67539U 26014H   26031.83335647 -.01631263  73595-3 -53221-2 0  9995
2 67539  97.2812 274.8169 0001123  86.9268 248.2289 15.90743610  2760
STARLINK-36585          
1 67540U 26014J   26031.83335647 -.01634131  73950-3 -52894-2 0  9994
2 67540  97.2807 274.8180 0001166  84.1618 254.4857 15.90900303  2769
STARLINK-36579          
1 67541U 26014K   26031.83335647 -.01623366  73198-3 -51993-2 0  9996
2 67541  97.2808 274.8202 0001201  75.4771 267.8250 15.91106736  2763
STARLINK-35934          
1 67542U 26014L   26031.83335647 -.01618220  72939-3 -51210-2 0  9994
2 67542  97.2805 274.8225 0001145  82.3231 266.1110 15.91342035  2751
STARLINK-36581          
1 67543U 26014M   26031.83335647 -.01620563  73278-3 -50775-2 0  9990
2 67543  97.2803 274.8243 0001146  83.1835 269.5504 15.91538273  2766
STARLINK-36565          
1 67544U 26014N   26031.83335647 -.01604502  72054-3 -49846-2 0  9994
2 67544  97.2796 274.8255 0001124  91.5091 265.0245 15.91702251  2766
STARLINK-36583          
1 67545U 26014P   26031.83335647 -.01610498  72681-3 -49590-2 0  9998
2 67545  97.2794 274.8270 0001154  79.6466 280.6862 15.91876599  2763
STARLINK-36580          
1 67546U 26014Q   26031.83335647 -.01618313  73499-3 -49274-2 0  9990
2 67546  97.2789 274.8288 0001045  91.8059 273.3235 15.92096794  2765
STARLINK-36584          
1 67547U 26014R   26031.83335647 -.01611767  73059-3 -48695-2 0  9995
2 67547  97.2787 274.8301 0001084  79.8858 288.6524 15.92247032  2769
STARLINK-36586          
1 67548U 26014S   26031.83335647 -.01581667  70695-3 -47269-2 0  9990
2 67548  97.2792 274.8327 0001155  83.4813 289.7752 15.92453653  2768
STARLINK-36564          
1 67549U 26014T   26031.83335647 -.01581789  70839-3 -46821-2 0  9999
2 67549  97.2793 274.8345 0001107  78.2599 299.0917 15.92639590  2707
STARLINK-36563          
1 67550U 26014U   26031.83335647 -.01576510  70533-3 -46218-2 0  9998
2 67550  97.2783 274.8356 0001180  76.9552 304.4435 15.92824462  2761
